STARLINK-37963          
1 69709U 26147F   26199.83686848  .00166918  00000+0  85332-3 0  9993
2 69709  97.2817 236.4434 0000846  79.5324 280.6039 15.80874605  4434
STARLINK-37969          
1 69710U 26147G   26199.83611784  .00241665  00000+0  12247-2 0  9999
2 69710  97.2833 236.4449 0000709  96.0104 264.1245 15.80870450  4438
STARLINK-37956          
1 69711U 26147H   26199.58216516  .00292038  00000+0  14661-2 0  9998
2 69711  97.2825 236.1788 0001242  46.8247 313.3125 15.80946922  4394
STARLINK-38043          
1 69712U 26147J   26199.83461559  .00217460  00000+0  11054-2 0  9995
2 69712  97.2832 236.4468 0000995  81.7493 278.3888 15.80866672  4430
STARLINK-38020          
1 69713U 26147K   26199.58066336  .00290695  00000+0  14598-2 0  9999
2 69713  97.2816 236.1800 0001361  58.5511 301.5891 15.80944739  4390
STARLINK-38059          
1 69714U 26147L   26199.57991076  .00234969  00000+0  11890-2 0  9991
2 69714  97.2820 236.1815 0001249  58.8081 301.3310 15.80920255  4393
STARLINK-38061          
1 69715U 26147M   26199.57916007  .00293195  00000+0  14721-2 0  9995
2 69715  97.2815 236.1832 0001210  70.3471 289.7928 15.80941554  4396
STARLINK-38060          
1 69716U 26147N   26199.57840821  .00296955  00000+0  14898-2 0  9998
2 69716  97.2824 236.1839 0001322  58.1244 302.0153 15.80948891  4390
STARLINK-38040          
1 69717U 26147P   26199.57765679  .00232812  00000+0  11785-2 0  9990
2 69717  97.2816 236.1848 0001342  66.9493 293.1917 15.80917767  4393
STARLINK-37989          
1 69718U 26147Q   26199.57690476  .00283732  00000+0  14263-2 0  9994
2 69718  97.2816 236.1849 0001025  84.6246 275.5140 15.80939579  4393
STARLINK-38039          
1 69719U 26147R   26199.57615257  .00266007  00000+0  13403-2 0  9990
2 69719  97.2821 236.1857 0000960  75.1951 284.9423 15.80933810  4394
STARLINK-38003          
1 69720U 26147S   26199.57540257  .00264463  00000+0  13332-2 0  9994
2 69720  97.2813 236.1863 0001269  80.6487 279.4924 15.80927741  4393
STARLINK-38014          
1 69721U 26147T   26199.70125171  .00274984  00000+0  13896-2 0  9998
2 69721  97.2818 236.3219 0001473  98.3365 261.8070 15.80847077  4417
STARLINK-37915          
1 69722U 26147U   26199.82710510  .00206185  00000+0  10497-2 0  9991
2 69722  97.2823 236.4567 0002071  85.3678 274.7827 15.80860970  4431
STARLINK-38007          
1 69723U 26147V   26199.57628745  .00193516  00000+0  98554-3 0  9996
2 69723  97.2822 236.1850 0002113 354.4195   5.7049 15.80887069  4395
STARLINK-38008          
1 69724U 26147W   26199.57239637  .00227035  00000+0  11502-2 0  9996
2 69724  97.2823 236.1923 0001567  82.3022 277.8424 15.80916255  4395
STARLINK-38021          
1 69725U 26147X   26199.57163828  .00253504  00000+0  12784-2 0  9998
2 69725  97.2826 236.1932 0001267  69.1783 290.9621 15.80947571  4393
STARLINK-38015          
1 69726U 26147Y   26198.05172056  .00270378  00000+0  13765-2 0  9992
2 69726  97.2828 234.5863 0003109 175.2803 184.8496 15.80693791  4157
STARLINK-38010          
1 69727U 26147Z   26199.54222845  .00188434  00000+0  12341-2 0  9990
2 69727  97.2825 236.0784 0000282 223.9095 136.2147 15.75235803  4386
SXM-11                  
1 69728U 26148A   26199.74108383  .00000004  00000+0  00000+0 0  9996
2 69728   0.1021 265.0330 0002022 184.2055 353.5640  1.00270106   359
CZ-4B R/B               
1 69738U 26149B   26199.47982302  .00000035  00000+0  29147-4 0  9991
2 69738  99.3218 207.7331 0197985 320.6082  38.0839 14.30068362  2602
STARLINK-38033          
1 69739U 26150A   26199.50283170  .00298832  00000+0  14994-2 0  9991
2 69739  97.2841  38.0553 0001482 123.7803 236.3606 15.80941563  3843
STARLINK-38076          
1 69740U 26150B   26199.53333629  .00109001  00000+0  72123-3 0  9999
2 69740  97.2840  38.0124 0001323 108.5412 251.5997 15.75226504  3846
STARLINK-38074          
1 69741U 26150C   26199.83335647 -.00032979  00000+0 -22133-3 0  9992
2 69741  97.2843  38.4058 0000908  83.7256 356.5787 15.75165552  3880
STARLINK-38041          
1 69742U 26150D   26199.83335647 -.00066155  00000+0 -44590-3 0  9997
2 69742  97.2850  38.3836 0001218  92.3527 293.9326 15.75200640  3885
STARLINK-38087          
1 69743U 26150E   26199.83335647 -.00075598  00000+0 -51015-3 0  9999
2 69743  97.2847  38.4001 0001070  91.9523 336.3288 15.75204588  3888
STARLINK-38078          
1 69744U 26150F   26199.49798913  .00238664  00000+0  12078-2 0  9999
2 69744  97.2847  38.0621 0000877  99.2702 260.8666 15.80910023  3848
STARLINK-38047          
1 69745U 26150G   26199.83335647 -.00059409  00000+0 -40011-3 0  9998
2 69745  97.2854  38.3870 0000551 101.2382 295.0457 15.75196997  3885
STARLINK-38046          
1 69746U 26150H   26199.87524749  .00209330  00000+0  10981-2 0  9996
2 69746  97.2857  38.4681 0005166 346.6884  13.4246 15.80182091  3906
